ONEWEB-0092             
1 45437U 20020P   25268.19259022 -.00000274  00000+0 -81013-3 0  9990
2 45437  87.8793  73.8461 0001888  89.7442 270.3903 13.11418891268057
ONEWEB-0085             
1 45438U 20020Q   25268.22905703  .00000497  00000+0  13670-2 0  9997
2 45438  87.8787  73.8518 0001645  91.1358 268.9959 13.11417769267942
ONEWEB-0096             
1 45439U 20020R   25268.15445210  .00000451  00000+0  12378-2 0  9996
2 45439  87.8802  73.8379 0001471  87.1033 273.0263 13.11414645267921
ONEWEB-0037             
1 45440U 20020S   25267.98236161  .00000386  00000+0  10545-2 0  9992
2 45440  87.8806  73.8378 0001720  89.7673 270.3652 13.11418579267934
ONEWEB-0042             
1 45441U 20020T   25267.99154320  .00000541  00000+0  14909-2 0  9991
2 45441  87.8792  73.8750 0001701  86.2448 273.8875 13.11415720267901
ONEWEB-0098             
1 45442U 20020U   25267.98744671  .00000524  00000+0  14437-2 0  9992
2 45442  87.8795  73.8865 0001602  93.2913 266.8398 13.11417540267888
ONEWEB-0055             
1 45443U 20020V   25268.19936292 -.00000232  00000+0 -69125-3 0  9992
2 45443  87.8796  73.8454 0001586  93.3517 266.7792 13.11418839267885
ONEWEB-0093             
1 45444U 20020W   25267.94603130 -.00000456  00000+0 -13233-2 0  9993
2 45444  87.8796  73.8812 0001636  75.8333 284.2976 13.11415753267916
ONEWEB-0029             
1 45445U 20020X   25268.19088511 -.00000540  00000+0 -15583-2 0  9996
2 45445  87.8795  73.8452 0001536  87.5738 272.5566 13.11417565267923
ONEWEB-0068             
1 45446U 20020Y   25267.94575322 -.00000459  00000+0 -13308-2 0  9992
2 45446  87.8795  73.8825 0001523  86.4205 273.7097 13.11413951267838
ONEWEB-0046             
1 45447U 20020Z   25268.01371805 -.00000163  00000+0 -49612-3 0  9992
2 45447  87.8790  73.8784 0001761  83.2147 276.9181 13.11413534267850
ONEWEB-0063             
1 45448U 20020AA  25268.19512019 -.00000245  00000+0 -72583-3 0  9990
2 45448  87.8795  73.8405 0001857  88.8687 271.2654 13.11417420267965
ONEWEB-0019             
1 45449U 20020AB  25268.01626246 -.00000257  00000+0 -75974-3 0  9990
2 45449  87.8786  73.8917 0001553  92.7124 267.4182 13.11414927267789
ONEWEB-0094             
1 45450U 20020AC  25268.18570176  .00000049  00000+0  94035-4 0  9997
2 45450  87.9070  58.5374 0001623  91.9258 268.2059 13.17649931271410
ONEWEB-0087             
1 45451U 20020AD  25267.36591201  .00000347  00000+0  94284-3 0  9995
2 45451  87.8805  73.9563 0001392  81.9099 278.2187 13.11421153267744
ONEWEB-0082             
1 45452U 20020AE  25268.20192044  .00000060  00000+0  13437-3 0  9995
2 45452  87.8805  73.8149 0001468  89.8473 270.2823 13.11417612267947
