[{"OBJECT_NAME":"ONEWEB-0092","OBJECT_ID":"2020-020P","EPOCH":"2025-09-25T04:37:19.795008","MEAN_MOTION":13.11418891,"ECCENTRICITY":0.00018882,"INCLINATION":87.8793,"RA_OF_ASC_NODE":73.8461,"ARG_OF_PERICENTER":89.7442,"MEAN_ANOMALY":270.3903,"EPHEMERIS_TYPE":0,"CLASSIFICATION_TYPE":"U","NORAD_CAT_ID":45437,"ELEMENT_SET_NO":999,"REV_AT_EPOCH":26805,"BSTAR":-0.00081012739,"MEAN_MOTION_DOT":-2.74e-6,"MEAN_MOTION_DDOT":0},{"OBJECT_NAME":"ONEWEB-0085","OBJECT_ID":"2020-020Q","EPOCH":"2025-09-25T05:29:50.527392","MEAN_MOTION":13.11417769,"ECCENTRICITY":0.00016459,"INCLINATION":87.8787,"RA_OF_ASC_NODE":73.8518,"ARG_OF_PERICENTER":91.1358,"MEAN_ANOMALY":268.9959,"EPHEMERIS_TYPE":0,"CLASSIFICATION_TYPE":"U","NORAD_CAT_ID":45438,"ELEMENT_SET_NO":999,"REV_AT_EPOCH":26794,"BSTAR":0.0013669695,"MEAN_MOTION_DOT":4.97e-6,"MEAN_MOTION_DDOT":0},{"OBJECT_NAME":"ONEWEB-0096","OBJECT_ID":"2020-020R","EPOCH":"2025-09-25T03:42:24.661440","MEAN_MOTION":13.11414645,"ECCENTRICITY":0.00014711,"INCLINATION":87.8802,"RA_OF_ASC_NODE":73.8379,"ARG_OF_PERICENTER":87.1033,"MEAN_ANOMALY":273.0263,"EPHEMERIS_TYPE":0,"CLASSIFICATION_TYPE":"U","NORAD_CAT_ID":45439,"ELEMENT_SET_NO":999,"REV_AT_EPOCH":26792,"BSTAR":0.0012378019,"MEAN_MOTION_DOT":4.51e-6,"MEAN_MOTION_DDOT":0},{"OBJECT_NAME":"ONEWEB-0037","OBJECT_ID":"2020-020S","EPOCH":"2025-09-24T23:34:36.043104","MEAN_MOTION":13.11418579,"ECCENTRICITY":0.00017202,"INCLINATION":87.8806,"RA_OF_ASC_NODE":73.8378,"ARG_OF_PERICENTER":89.7673,"MEAN_ANOMALY":270.3652,"EPHEMERIS_TYPE":0,"CLASSIFICATION_TYPE":"U","NORAD_CAT_ID":45440,"ELEMENT_SET_NO":999,"REV_AT_EPOCH":26793,"BSTAR":0.0010544581,"MEAN_MOTION_DOT":3.86e-6,"MEAN_MOTION_DDOT":0},{"OBJECT_NAME":"ONEWEB-0042","OBJECT_ID":"2020-020T","EPOCH":"2025-09-24T23:47:49.332480","MEAN_MOTION":13.1141572,"ECCENTRICITY":0.00017015,"INCLINATION":87.8792,"RA_OF_ASC_NODE":73.875,"ARG_OF_PERICENTER":86.2448,"MEAN_ANOMALY":273.8875,"EPHEMERIS_TYPE":0,"CLASSIFICATION_TYPE":"U","NORAD_CAT_ID":45441,"ELEMENT_SET_NO":999,"REV_AT_EPOCH":26790,"BSTAR":0.0014909288,"MEAN_MOTION_DOT":5.41e-6,"MEAN_MOTION_DDOT":0},{"OBJECT_NAME":"ONEWEB-0098","OBJECT_ID":"2020-020U","EPOCH":"2025-09-24T23:41:55.395744","MEAN_MOTION":13.1141754,"ECCENTRICITY":0.00016028,"INCLINATION":87.8795,"RA_OF_ASC_NODE":73.8865,"ARG_OF_PERICENTER":93.2913,"MEAN_ANOMALY":266.8398,"EPHEMERIS_TYPE":0,"CLASSIFICATION_TYPE":"U","NORAD_CAT_ID":45442,"ELEMENT_SET_NO":999,"REV_AT_EPOCH":26788,"BSTAR":0.0014437452,"MEAN_MOTION_DOT":5.24e-6,"MEAN_MOTION_DDOT":0},{"OBJECT_NAME":"ONEWEB-0055","OBJECT_ID":"2020-020V","EPOCH":"2025-09-25T04:47:04.956288","MEAN_MOTION":13.11418839,"ECCENTRICITY":0.00015866,"INCLINATION":87.8796,"RA_OF_ASC_NODE":73.8454,"ARG_OF_PERICENTER":93.3517,"MEAN_ANOMALY":266.7792,"EPHEMERIS_TYPE":0,"CLASSIFICATION_TYPE":"U","NORAD_CAT_ID":45443,"ELEMENT_SET_NO":999,"REV_AT_EPOCH":26788,"BSTAR":-0.00069124911,"MEAN_MOTION_DOT":-2.32e-6,"MEAN_MOTION_DDOT":0},{"OBJECT_NAME":"ONEWEB-0093","OBJECT_ID":"2020-020W","EPOCH":"2025-09-24T22:42:17.104320","MEAN_MOTION":13.11415753,"ECCENTRICITY":0.00016366,"INCLINATION":87.8796,"RA_OF_ASC_NODE":73.8812,"ARG_OF_PERICENTER":75.8333,"MEAN_ANOMALY":284.2976,"EPHEMERIS_TYPE":0,"CLASSIFICATION_TYPE":"U","NORAD_CAT_ID":45444,"ELEMENT_SET_NO":999,"REV_AT_EPOCH":26791,"BSTAR":-0.0013233041,"MEAN_MOTION_DOT":-4.56e-6,"MEAN_MOTION_DDOT":0},{"OBJECT_NAME":"ONEWEB-0029","OBJECT_ID":"2020-020X","EPOCH":"2025-09-25T04:34:52.473504","MEAN_MOTION":13.11417565,"ECCENTRICITY":0.00015367,"INCLINATION":87.8795,"RA_OF_ASC_NODE":73.8452,"ARG_OF_PERICENTER":87.5738,"MEAN_ANOMALY":272.5566,"EPHEMERIS_TYPE":0,"CLASSIFICATION_TYPE":"U","NORAD_CAT_ID":45445,"ELEMENT_SET_NO":999,"REV_AT_EPOCH":26792,"BSTAR":-0.0015582963,"MEAN_MOTION_DOT":-5.4e-6,"MEAN_MOTION_DDOT":0},{"OBJECT_NAME":"ONEWEB-0068","OBJECT_ID":"2020-020Y","EPOCH":"2025-09-24T22:41:53.078208","MEAN_MOTION":13.11413951,"ECCENTRICITY":0.00015239,"INCLINATION":87.8795,"RA_OF_ASC_NODE":73.8825,"ARG_OF_PERICENTER":86.4205,"MEAN_ANOMALY":273.7097,"EPHEMERIS_TYPE":0,"CLASSIFICATION_TYPE":"U","NORAD_CAT_ID":45446,"ELEMENT_SET_NO":999,"REV_AT_EPOCH":26783,"BSTAR":-0.0013307924,"MEAN_MOTION_DOT":-4.59e-6,"MEAN_MOTION_DDOT":0},{"OBJECT_NAME":"ONEWEB-0046","OBJECT_ID":"2020-020Z","EPOCH":"2025-09-25T00:19:45.239520","MEAN_MOTION":13.11413534,"ECCENTRICITY":0.00017614,"INCLINATION":87.879,"RA_OF_ASC_NODE":73.8784,"ARG_OF_PERICENTER":83.2147,"MEAN_ANOMALY":276.9181,"EPHEMERIS_TYPE":0,"CLASSIFICATION_TYPE":"U","NORAD_CAT_ID":45447,"ELEMENT_SET_NO":999,"REV_AT_EPOCH":26785,"BSTAR":-0.00049612182,"MEAN_MOTION_DOT":-1.63e-6,"MEAN_MOTION_DDOT":0},{"OBJECT_NAME":"ONEWEB-0063","OBJECT_ID":"2020-020AA","EPOCH":"2025-09-25T04:40:58.384416","MEAN_MOTION":13.1141742,"ECCENTRICITY":0.00018579,"INCLINATION":87.8795,"RA_OF_ASC_NODE":73.8405,"ARG_OF_PERICENTER":88.8687,"MEAN_ANOMALY":271.2654,"EPHEMERIS_TYPE":0,"CLASSIFICATION_TYPE":"U","NORAD_CAT_ID":45448,"ELEMENT_SET_NO":999,"REV_AT_EPOCH":26796,"BSTAR":-0.00072583414,"MEAN_MOTION_DOT":-2.45e-6,"MEAN_MOTION_DDOT":0},{"OBJECT_NAME":"ONEWEB-0019","OBJECT_ID":"2020-020AB","EPOCH":"2025-09-25T00:23:25.076544","MEAN_MOTION":13.11414927,"ECCENTRICITY":0.00015536,"INCLINATION":87.8786,"RA_OF_ASC_NODE":73.8917,"ARG_OF_PERICENTER":92.7124,"MEAN_ANOMALY":267.4182,"EPHEMERIS_TYPE":0,"CLASSIFICATION_TYPE":"U","NORAD_CAT_ID":45449,"ELEMENT_SET_NO":999,"REV_AT_EPOCH":26778,"BSTAR":-0.00075974493,"MEAN_MOTION_DOT":-2.57e-6,"MEAN_MOTION_DDOT":0},{"OBJECT_NAME":"ONEWEB-0094","OBJECT_ID":"2020-020AC","EPOCH":"2025-09-25T04:27:24.632064","MEAN_MOTION":13.17649931,"ECCENTRICITY":0.00016236,"INCLINATION":87.907,"RA_OF_ASC_NODE":58.5374,"ARG_OF_PERICENTER":91.9258,"MEAN_ANOMALY":268.2059,"EPHEMERIS_TYPE":0,"CLASSIFICATION_TYPE":"U","NORAD_CAT_ID":45450,"ELEMENT_SET_NO":999,"REV_AT_EPOCH":27141,"BSTAR":9.403534e-5,"MEAN_MOTION_DOT":4.9e-7,"MEAN_MOTION_DDOT":0},{"OBJECT_NAME":"ONEWEB-0087","OBJECT_ID":"2020-020AD","EPOCH":"2025-09-24T08:46:54.797664","MEAN_MOTION":13.11421153,"ECCENTRICITY":0.0001392,"INCLINATION":87.8805,"RA_OF_ASC_NODE":73.9563,"ARG_OF_PERICENTER":81.9099,"MEAN_ANOMALY":278.2187,"EPHEMERIS_TYPE":0,"CLASSIFICATION_TYPE":"U","NORAD_CAT_ID":45451,"ELEMENT_SET_NO":999,"REV_AT_EPOCH":26774,"BSTAR":0.00094283507,"MEAN_MOTION_DOT":3.47e-6,"MEAN_MOTION_DDOT":0},{"OBJECT_NAME":"ONEWEB-0082","OBJECT_ID":"2020-020AE","EPOCH":"2025-09-25T04:50:45.926016","MEAN_MOTION":13.11417612,"ECCENTRICITY":0.00014688,"INCLINATION":87.8805,"RA_OF_ASC_NODE":73.8149,"ARG_OF_PERICENTER":89.8473,"MEAN_ANOMALY":270.2823,"EPHEMERIS_TYPE":0,"CLASSIFICATION_TYPE":"U","NORAD_CAT_ID":45452,"ELEMENT_SET_NO":999,"REV_AT_EPOCH":26794,"BSTAR":0.00013437498,"MEAN_MOTION_DOT":6.0e-7,"MEAN_MOTION_DDOT":0}]
